STARLINK-30714          
1 57939U 23148E   24333.44317742  .00007332  00000+0  25947-3 0  9992
2 57939  53.1615  30.1684 0003670  99.8458 260.2957 15.30196947 67039
STARLINK-30711          
1 57940U 23148F   24333.44003425  .00003866  00000+0  14269-3 0  9997
2 57940  53.1591  30.1595 0002982 103.7164 256.4169 15.30181655 67031
STARLINK-30715          
1 57941U 23148G   24332.55503104  .00003876  00000+0  14286-3 0  9998
2 57941  53.1614  33.8795 0001876 137.1278 222.9869 15.30215893 66821
STARLINK-30455          
1 57942U 23148H   24333.51166377  .00000925  00000+0  43342-4 0  9991
2 57942  53.1599  29.8505 0000744  80.9193 279.1892 15.30193065 67043
STARLINK-30456          
1 57943U 23148J   24333.56433219  .00016695  00000+0  57424-3 0  9995
2 57943  53.1607  29.5887 0000697 134.5813 225.5245 15.30215686 67058
STARLINK-30708          
1 57944U 23148K   24333.54429736  .00002221  00000+0  87159-4 0  9992
2 57944  53.1611  29.4604 0001167 113.4658 246.6466 15.30176765 67059
STARLINK-30705          
1 57945U 23148L   24333.42421299  .00002516  00000+0  97084-4 0  9991
2 57945  53.1590  30.1426 0001876  97.8286 262.2928 15.30190559 67038
STARLINK-30704          
1 57946U 23148M   24333.53439817  .00001294  00000+0  10978-3 0  9997
2 57946  53.1597  69.1793 0001834  81.0522 279.0675 15.04927453 66482
STARLINK-30706          
1 57947U 23148N   24333.43054266  .00057448  00000+0  19367-2 0  9990
2 57947  53.1594  30.1701 0002233  99.0282 261.0972 15.30200882 67035
STARLINK-30709          
1 57948U 23148P   24333.50005459  .00021769  00000+0  74491-3 0  9996
2 57948  53.1611  29.7353 0001442 111.3653 248.7502 15.30202823 67043
STARLINK-30707          
1 57949U 23148Q   24333.55797584  .00009398  00000+0  32878-3 0  9996
2 57949  53.1584  29.5493 0001683 102.4729 257.6460 15.30224215 67050
STARLINK-30701          
1 57950U 23148R   24333.55165346 -.00012694  00000+0 -41643-3 0  9998
2 57950  53.1595  29.4890 0000770 128.2689 231.8381 15.30258501 67052
STARLINK-30399          
1 57951U 23148S   24333.48214121  .00001501  00000+0  62821-4 0  9992
2 57951  53.1593  29.7658 0001342 107.2360 252.8788 15.30187313 67040
STARLINK-30713          
1 57952U 23148T   24333.46631377  .00001226  00000+0  53516-4 0  9992
2 57952  53.1598  29.6913 0000790 104.5426 255.5663 15.30194428 67045
STARLINK-30700          
1 57953U 23148U   24333.50433062  .00002767  00000+0  10553-3 0  9993
2 57953  53.1610  19.6056 0001201  97.9843 262.1294 15.30189980 67180
STARLINK-30703          
1 57954U 23148V   24333.54329271  .00001635  00000+0  67353-4 0  9998
2 57954  53.1606  19.3886 0001132 180.5903 179.5097 15.30184877 67196
STARLINK-30702          
1 57955U 23148W   24333.41689221  .00003718  00000+0  13764-3 0  9999
2 57955  53.1611  20.0094 0001776 114.5065 245.6121 15.30193936 67170
STARLINK-30396          
1 57964U 23151A   24333.35298637  .00002267  00000+0  18289-3 0  9998
2 57964  43.0050 352.8189 0002090 274.8222  85.2382 15.02531546 65583
STARLINK-30524          
1 57965U 23151B   24333.32412491  .00000675  00000+0  65030-4 0  9990
2 57965  43.0073 352.6081 0002444 270.0399  90.0163 15.02537434 65587
STARLINK-30521          
1 57966U 23151C   24333.33189823  .00001133  00000+0  98987-4 0  9999
2 57966  43.0071 352.6528 0002007 270.6416  89.4197 15.02534649 65587
STARLINK-30528          
1 57967U 23151D   24333.32857531 -.00001354  00000+0 -85193-4 0  9999
2 57967  43.0038 352.6345 0001195 288.5285  71.5428 15.02537052 65587
STARLINK-30495          
1 57968U 23151E   24333.49148657  .00000307  00000+0  37755-4 0  9996
2 57968  43.0035 352.1256 0000765 297.6151  62.4614 15.02567359 65608
STARLINK-30484          
1 57969U 23151F   24333.32523988  .00000263  00000+0  34587-4 0  9994
2 57969  43.0057 352.6064 0001810 281.4835  78.5804 15.02535335 65582
STARLINK-30494          
1 57970U 23151G   24333.36852240  .00000799  00000+0  74168-4 0  9999
2 57970  43.0013 352.9094 0000615 142.7409 217.3476 15.02537193 65582
STARLINK-30498          
1 57971U 23151H   24333.36407980  .00001137  00000+0  99196-4 0  9992
2 57971  43.0058 352.8773 0002008 272.0403  88.0210 15.02540451 65584
STARLINK-30505          
1 57972U 23151J   24333.11481789 -.00005269  00000+0 -37523-3 0  9992
2 57972  43.0011 354.4422 0001210 284.1991  75.8717 15.02539586 65542
STARLINK-30502          
1 57973U 23151K   24333.11926142 -.00002388  00000+0 -16177-3 0  9991
2 57973  43.0003 354.4834 0000278 149.1074 210.9785 15.02545634 65544
STARLINK-30489          
1 57974U 23151L   24333.32745897  .00001380  00000+0  11725-3 0  9994
2 57974  43.0043 352.6128 0001588 281.7381  78.3283 15.02533217 65581
STARLINK-30503          
1 57975U 23151M   24333.37629078  .00000914  00000+0  82720-4 0  9998
2 57975  43.0011 352.9460 0000611 243.5764 116.5015 15.02541806 65587
STARLINK-30512          
1 57976U 23151N   24333.54463672  .00003656  00000+0  28536-3 0  9994
2 57976  43.0032 351.6013 0000661 339.5156  20.5659 15.02560980 65613
STARLINK-30509          
1 57977U 23151P   24333.39930817  .00000618  00000+0  60811-4 0  9996
2 57977  43.0073   5.8722 0002227 274.1455  85.9133 15.02534875 65436
STARLINK-30511          
1 57978U 23151Q   24333.39264340  .00000522  00000+0  53736-4 0  9990
2 57978  43.0070   5.8205 0001816 277.4632  82.6004 15.02518933 65434
STARLINK-30508          
1 57979U 23151R   24333.38931555  .00000829  00000+0  76398-4 0  9998
2 57979  43.0017   5.7955 0001007 258.3245 101.7485 15.02545734 65432
STARLINK-30504          
1 57980U 23151S   24333.31436646  .00001850  00000+0  80530-4 0  9992
2 57980  43.0003 343.1934 0001228 263.1043  96.9669 15.25915673 65695
STARLINK-30510          
1 57981U 23151T   24333.18655160  .00000126  00000+0  24385-4 0  9993
2 57981  43.0052   6.8548 0001957 284.8072  75.2553 15.02538175 65409
STARLINK-30507          
1 57982U 23151U   24333.38266202  .00000775  00000+0  72425-4 0  9999
2 57982  43.0046   5.7430 0001820 261.9288  98.1348 15.02528537 65435
STARLINK-30515          
1 57983U 23151V   24332.44864088  .00000682  00000+0  65533-4 0  9991
2 57983  43.0032  10.7772 0001181 276.9788  83.0920 15.02529656 65293
STARLINK-30516          
1 57984U 23151W   24333.37599662  .00006950  00000+0  52910-3 0  9996
2 57984  43.0042   5.6970 0001646 291.7217  68.3450 15.02530435 65433
STARLINK-30519          
1 57985U 23151X   24333.10675106  .00007605  00000+0  57725-3 0  9993
2 57985  43.0051   7.1143 0000884 245.3476 114.7274 15.02549383 65339
STARLINK-30537          
1 57991U 23153A   24333.35772568  .00001269  00000+0  10898-3 0  9999
2 57991  43.0041  83.0365 0001380 263.4842  96.5843 15.02534671 64628
STARLINK-30534          
1 57992U 23153B   24333.36770830  .00002867  00000+0  22721-3 0  9994
2 57992  42.9998  83.1033 0001613 274.0064  86.0594 15.02539762 64627
STARLINK-30536          
1 57993U 23153C   24333.35106682  .00001638  00000+0  13627-3 0  9992
2 57993  43.0036  82.9896 0001466 274.1138  85.9537 15.02535176 64727
STARLINK-30538          
1 57994U 23153D   24333.34442567 -.00001810  00000+0 -11901-3 0  9994
2 57994  42.9996  82.9313 0001044 265.7898  94.2825 15.02518834 64620
STARLINK-30517          
1 57995U 23153E   24333.60698717  .00002301  00000+0  18532-3 0  9995
2 57995  43.0032  81.4638 0000594 204.5234 155.5580 15.02541219 64769
STARLINK-30543          
1 57996U 23153F   24333.49575403  .00002304  00000+0  62402-4 0  9998
2 57996  43.0011 255.2943 0001533 280.8981  79.1703 15.40705380 66894
STARLINK-30523          
1 57997U 23153G   24333.34773516  .00001503  00000+0  12630-3 0  9995
2 57997  43.0043  82.9630 0001685 267.8363  92.2287 15.02537540 64727
STARLINK-30531          
1 57998U 23153H   24333.57702511  .00002562  00000+0  20465-3 0  9999
2 57998  43.0038  81.2482 0001475 269.3390  90.7283 15.02533077 64767
STARLINK-30552          
1 57999U 23153J   24333.60032792  .00002077  00000+0  16871-3 0  9998
2 57999  42.9980  81.4195 0000360 133.6625 226.4247 15.02541815 64768
STARLINK-30545          
1 58000U 23153K   24333.59699507  .00001240  00000+0  10682-3 0  9998
2 58000  43.0039  81.3901 0001643 283.0272  77.0387 15.02542014 64763
STARLINK-30535          
1 58001U 23153L   24333.39421976  .00004052  00000+0  31475-3 0  9997
2 58001  43.0042  82.4453 0001446 253.3185 106.7498 15.02545345 64736
STARLINK-30540          
1 58002U 23153M   24333.29790681 -.00000494  00000+0 -21490-4 0  9994
2 58002  43.0059  83.4284 0001739 256.6812 103.3837 15.02547710 64611
STARLINK-30546          
1 58003U 23153N   24333.59033679  .00001220  00000+0  10534-3 0  9997
2 58003  43.0019  81.3363 0000520 252.2034 107.8752 15.02541181 64765
STARLINK-30539          
1 58004U 23153P   24333.58702137  .00008223  00000+0  62298-3 0  9993
2 58004  43.0058  81.3188 0001571 270.5228  89.5434 15.02543894 64765
STARLINK-30530          
1 58005U 23153Q   24333.58037695  .00000170  00000+0  27693-4 0  9998
2 58005  43.0048  81.2623 0001076 249.2342 110.8385 15.02518397 64772
STARLINK-30526          
1 58006U 23153R   24333.52782028 -.00001820  00000+0 -11971-3 0  9996
2 58006  43.0045  56.5411 0001417 271.0918  88.9762 15.02526622 65046
STARLINK-30527          
1 58007U 23153S   24333.22738130  .00016859  00000+0  62886-3 0  9996
2 58007  42.9996 316.7383 0001966 197.1387 162.9398 15.27151567 66077
STARLINK-30522          
1 58008U 23153T   24333.33774120  .00001783  00000+0  14699-3 0  9997
2 58008  43.0029  82.8771 0001483 273.1035  86.9638 15.02542234 64728
STARLINK-30486          
1 58009U 23153U   24333.58368239  .00006008  00000+0  45950-3 0  9994
2 58009  43.0024  81.2842 0001449 265.3636  94.7041 15.02531923 64669
STARLINK-30520          
1 58010U 23153V   24333.57380703  .00003757  00000+0  29318-3 0  9993
2 58010  43.0087  82.0600 0002023 274.0377  86.0234 15.02524504 64653
